[{"OBJECT_NAME":"ONEWEB-0395","OBJECT_ID":"2021-132G","EPOCH":"2025-10-29T08:51:47.977920","MEAN_MOTION":13.11416531,"ECCENTRICITY":0.0001685,"INCLINATION":87.8838,"RA_OF_ASC_NODE":67.0435,"ARG_OF_PERICENTER":90.522,"MEAN_ANOMALY":269.6101,"EPHEMERIS_TYPE":0,"CLASSIFICATION_TYPE":"U","NORAD_CAT_ID":50475,"ELEMENT_SET_NO":999,"REV_AT_EPOCH":18546,"BSTAR":-0.0011176,"MEAN_MOTION_DOT":-3.83e-6,"MEAN_MOTION_DDOT":0},{"OBJECT_NAME":"ONEWEB-0396","OBJECT_ID":"2021-132H","EPOCH":"2025-10-29T12:03:41.375808","MEAN_MOTION":13.18686197,"ECCENTRICITY":0.0001727,"INCLINATION":87.9227,"RA_OF_ASC_NODE":21.2653,"ARG_OF_PERICENTER":99.7934,"MEAN_ANOMALY":260.3393,"EPHEMERIS_TYPE":0,"CLASSIFICATION_TYPE":"U","NORAD_CAT_ID":50476,"ELEMENT_SET_NO":999,"REV_AT_EPOCH":19123,"BSTAR":3.2683e-5,"MEAN_MOTION_DOT":2.6e-7,"MEAN_MOTION_DDOT":0},{"OBJECT_NAME":"ONEWEB-0397","OBJECT_ID":"2021-132J","EPOCH":"2025-10-29T12:25:03.906048","MEAN_MOTION":13.18688252,"ECCENTRICITY":0.0001657,"INCLINATION":87.9229,"RA_OF_ASC_NODE":21.2628,"ARG_OF_PERICENTER":104.296,"MEAN_ANOMALY":255.8356,"EPHEMERIS_TYPE":0,"CLASSIFICATION_TYPE":"U","NORAD_CAT_ID":50477,"ELEMENT_SET_NO":999,"REV_AT_EPOCH":19121,"BSTAR":4.2171e-5,"MEAN_MOTION_DOT":3.0e-7,"MEAN_MOTION_DDOT":0},{"OBJECT_NAME":"ONEWEB-0398","OBJECT_ID":"2021-132K","EPOCH":"2025-10-29T08:05:26.280672","MEAN_MOTION":13.11417354,"ECCENTRICITY":0.0001942,"INCLINATION":87.8845,"RA_OF_ASC_NODE":67.0189,"ARG_OF_PERICENTER":90.4839,"MEAN_ANOMALY":269.6512,"EPHEMERIS_TYPE":0,"CLASSIFICATION_TYPE":"U","NORAD_CAT_ID":50478,"ELEMENT_SET_NO":999,"REV_AT_EPOCH":18535,"BSTAR":0.0017718,"MEAN_MOTION_DOT":6.41e-6,"MEAN_MOTION_DDOT":0},{"OBJECT_NAME":"ONEWEB-0399","OBJECT_ID":"2021-132L","EPOCH":"2025-10-29T09:35:44.611296","MEAN_MOTION":13.11420575,"ECCENTRICITY":0.0001069,"INCLINATION":87.8842,"RA_OF_ASC_NODE":67.0249,"ARG_OF_PERICENTER":84.8001,"MEAN_ANOMALY":275.3248,"EPHEMERIS_TYPE":0,"CLASSIFICATION_TYPE":"U","NORAD_CAT_ID":50479,"ELEMENT_SET_NO":999,"REV_AT_EPOCH":18535,"BSTAR":0.00012642,"MEAN_MOTION_DOT":5.7e-7,"MEAN_MOTION_DDOT":0},{"OBJECT_NAME":"ONEWEB-0400","OBJECT_ID":"2021-132M","EPOCH":"2025-10-29T11:54:10.880064","MEAN_MOTION":13.18686703,"ECCENTRICITY":0.0001974,"INCLINATION":87.9228,"RA_OF_ASC_NODE":21.2568,"ARG_OF_PERICENTER":98.0587,"MEAN_ANOMALY":262.0769,"EPHEMERIS_TYPE":0,"CLASSIFICATION_TYPE":"U","NORAD_CAT_ID":50480,"ELEMENT_SET_NO":999,"REV_AT_EPOCH":19120,"BSTAR":0.00022051,"MEAN_MOTION_DOT":1.0e-6,"MEAN_MOTION_DDOT":0},{"OBJECT_NAME":"ONEWEB-0401","OBJECT_ID":"2021-132N","EPOCH":"2025-10-29T11:09:03.782304","MEAN_MOTION":13.18686484,"ECCENTRICITY":0.0001764,"INCLINATION":87.9228,"RA_OF_ASC_NODE":21.2606,"ARG_OF_PERICENTER":107.3827,"MEAN_ANOMALY":252.7498,"EPHEMERIS_TYPE":0,"CLASSIFICATION_TYPE":"U","NORAD_CAT_ID":50481,"ELEMENT_SET_NO":999,"REV_AT_EPOCH":19120,"BSTAR":0.00019088,"MEAN_MOTION_DOT":8.8e-7,"MEAN_MOTION_DDOT":0},{"OBJECT_NAME":"ONEWEB-0402","OBJECT_ID":"2021-132P","EPOCH":"2025-10-29T12:06:03.693888","MEAN_MOTION":13.18686203,"ECCENTRICITY":0.000176,"INCLINATION":87.9227,"RA_OF_ASC_NODE":21.2451,"ARG_OF_PERICENTER":121.6961,"MEAN_ANOMALY":238.4343,"EPHEMERIS_TYPE":0,"CLASSIFICATION_TYPE":"U","NORAD_CAT_ID":50482,"ELEMENT_SET_NO":999,"REV_AT_EPOCH":19123,"BSTAR":-3.0684e-5,"MEAN_MOTION_DOT":1.0e-8,"MEAN_MOTION_DDOT":0},{"OBJECT_NAME":"ONEWEB-0403","OBJECT_ID":"2021-132Q","EPOCH":"2025-10-29T10:52:25.529664","MEAN_MOTION":13.1868619,"ECCENTRICITY":0.0001764,"INCLINATION":87.9232,"RA_OF_ASC_NODE":21.2759,"ARG_OF_PERICENTER":98.0823,"MEAN_ANOMALY":262.051,"EPHEMERIS_TYPE":0,"CLASSIFICATION_TYPE":"U","NORAD_CAT_ID":50483,"ELEMENT_SET_NO":999,"REV_AT_EPOCH":19118,"BSTAR":0.00018065,"MEAN_MOTION_DOT":8.4e-7,"MEAN_MOTION_DDOT":0},{"OBJECT_NAME":"ONEWEB-0404","OBJECT_ID":"2021-132R","EPOCH":"2025-10-29T09:08:53.648736","MEAN_MOTION":13.11417988,"ECCENTRICITY":0.0001379,"INCLINATION":87.8845,"RA_OF_ASC_NODE":67.0366,"ARG_OF_PERICENTER":86.0745,"MEAN_ANOMALY":274.054,"EPHEMERIS_TYPE":0,"CLASSIFICATION_TYPE":"U","NORAD_CAT_ID":50484,"ELEMENT_SET_NO":999,"REV_AT_EPOCH":18544,"BSTAR":-0.0013388,"MEAN_MOTION_DOT":-4.62e-6,"MEAN_MOTION_DDOT":0},{"OBJECT_NAME":"ONEWEB-0405","OBJECT_ID":"2021-132S","EPOCH":"2025-10-29T11:13:48.294048","MEAN_MOTION":13.18685688,"ECCENTRICITY":0.000159,"INCLINATION":87.923,"RA_OF_ASC_NODE":21.2574,"ARG_OF_PERICENTER":109.2627,"MEAN_ANOMALY":250.8677,"EPHEMERIS_TYPE":0,"CLASSIFICATION_TYPE":"U","NORAD_CAT_ID":50485,"ELEMENT_SET_NO":999,"REV_AT_EPOCH":19158,"BSTAR":0.00026983,"MEAN_MOTION_DOT":1.19e-6,"MEAN_MOTION_DDOT":0},{"OBJECT_NAME":"ONEWEB-0406","OBJECT_ID":"2021-132T","EPOCH":"2025-10-29T05:31:46.458048","MEAN_MOTION":13.18686865,"ECCENTRICITY":0.0001832,"INCLINATION":87.9233,"RA_OF_ASC_NODE":21.3286,"ARG_OF_PERICENTER":84.5954,"MEAN_ANOMALY":275.5387,"EPHEMERIS_TYPE":0,"CLASSIFICATION_TYPE":"U","NORAD_CAT_ID":50486,"ELEMENT_SET_NO":999,"REV_AT_EPOCH":19118,"BSTAR":0.000169,"MEAN_MOTION_DOT":8.0e-7,"MEAN_MOTION_DDOT":0},{"OBJECT_NAME":"ONEWEB-0407","OBJECT_ID":"2021-132U","EPOCH":"2025-10-29T12:39:18.937728","MEAN_MOTION":13.18686295,"ECCENTRICITY":0.0001893,"INCLINATION":87.9231,"RA_OF_ASC_NODE":21.2538,"ARG_OF_PERICENTER":105.8976,"MEAN_ANOMALY":254.2364,"EPHEMERIS_TYPE":0,"CLASSIFICATION_TYPE":"U","NORAD_CAT_ID":50487,"ELEMENT_SET_NO":999,"REV_AT_EPOCH":19116,"BSTAR":3.9006e-5,"MEAN_MOTION_DOT":2.8e-7,"MEAN_MOTION_DDOT":0},{"OBJECT_NAME":"ONEWEB-0409","OBJECT_ID":"2021-132V","EPOCH":"2025-10-29T09:06:26.017056","MEAN_MOTION":13.11414792,"ECCENTRICITY":0.0001564,"INCLINATION":87.8847,"RA_OF_ASC_NODE":66.9979,"ARG_OF_PERICENTER":83.8116,"MEAN_ANOMALY":276.319,"EPHEMERIS_TYPE":0,"CLASSIFICATION_TYPE":"U","NORAD_CAT_ID":50488,"ELEMENT_SET_NO":999,"REV_AT_EPOCH":18533,"BSTAR":-0.0017275,"MEAN_MOTION_DOT":-5.99e-6,"MEAN_MOTION_DDOT":0},{"OBJECT_NAME":"ONEWEB-0412","OBJECT_ID":"2021-132W","EPOCH":"2025-10-29T12:22:40.131264","MEAN_MOTION":13.1868624,"ECCENTRICITY":0.0001673,"INCLINATION":87.9229,"RA_OF_ASC_NODE":21.2685,"ARG_OF_PERICENTER":112.6279,"MEAN_ANOMALY":247.503,"EPHEMERIS_TYPE":0,"CLASSIFICATION_TYPE":"U","NORAD_CAT_ID":50489,"ELEMENT_SET_NO":999,"REV_AT_EPOCH":19125,"BSTAR":0.00015432,"MEAN_MOTION_DOT":7.4e-7,"MEAN_MOTION_DDOT":0},{"OBJECT_NAME":"ONEWEB-0413","OBJECT_ID":"2021-132X","EPOCH":"2025-10-29T07:02:01.546080","MEAN_MOTION":13.1868634,"ECCENTRICITY":0.0001846,"INCLINATION":87.9224,"RA_OF_ASC_NODE":21.3296,"ARG_OF_PERICENTER":112.3277,"MEAN_ANOMALY":247.805,"EPHEMERIS_TYPE":0,"CLASSIFICATION_TYPE":"U","NORAD_CAT_ID":50490,"ELEMENT_SET_NO":999,"REV_AT_EPOCH":19116,"BSTAR":0.00018296,"MEAN_MOTION_DOT":8.5e-7,"MEAN_MOTION_DDOT":0},{"OBJECT_NAME":"ONEWEB-0414","OBJECT_ID":"2021-132Y","EPOCH":"2025-10-29T12:08:26.178720","MEAN_MOTION":13.18686765,"ECCENTRICITY":0.0001603,"INCLINATION":87.923,"RA_OF_ASC_NODE":21.2464,"ARG_OF_PERICENTER":105.1804,"MEAN_ANOMALY":254.9506,"EPHEMERIS_TYPE":0,"CLASSIFICATION_TYPE":"U","NORAD_CAT_ID":50491,"ELEMENT_SET_NO":999,"REV_AT_EPOCH":19122,"BSTAR":-1.3509e-6,"MEAN_MOTION_DOT":1.2e-7,"MEAN_MOTION_DDOT":0},{"OBJECT_NAME":"ONEWEB-0417","OBJECT_ID":"2021-132Z","EPOCH":"2025-10-29T12:20:18.962304","MEAN_MOTION":13.18686466,"ECCENTRICITY":0.0001732,"INCLINATION":87.9232,"RA_OF_ASC_NODE":21.2785,"ARG_OF_PERICENTER":94.6815,"MEAN_ANOMALY":265.4515,"EPHEMERIS_TYPE":0,"CLASSIFICATION_TYPE":"U","NORAD_CAT_ID":50492,"ELEMENT_SET_NO":999,"REV_AT_EPOCH":19120,"BSTAR":-5.8844e-5,"MEAN_MOTION_DOT":-1.0e-7,"MEAN_MOTION_DDOT":0},{"OBJECT_NAME":"ONEWEB-0418","OBJECT_ID":"2021-132AA","EPOCH":"2025-10-29T12:34:22.414656","MEAN_MOTION":13.18686129,"ECCENTRICITY":0.0001651,"INCLINATION":87.9231,"RA_OF_ASC_NODE":21.2619,"ARG_OF_PERICENTER":86.5167,"MEAN_ANOMALY":273.6154,"EPHEMERIS_TYPE":0,"CLASSIFICATION_TYPE":"U","NORAD_CAT_ID":50493,"ELEMENT_SET_NO":999,"REV_AT_EPOCH":19126,"BSTAR":3.3137e-5,"MEAN_MOTION_DOT":2.6e-7,"MEAN_MOTION_DDOT":0},{"OBJECT_NAME":"ONEWEB-0419","OBJECT_ID":"2021-132AB","EPOCH":"2025-10-29T11:11:25.778112","MEAN_MOTION":13.18686389,"ECCENTRICITY":0.0001945,"INCLINATION":87.923,"RA_OF_ASC_NODE":21.2733,"ARG_OF_PERICENTER":92.7043,"MEAN_ANOMALY":267.4312,"EPHEMERIS_TYPE":0,"CLASSIFICATION_TYPE":"U","NORAD_CAT_ID":50494,"ELEMENT_SET_NO":999,"REV_AT_EPOCH":19117,"BSTAR":0.00018898,"MEAN_MOTION_DOT":8.7e-7,"MEAN_MOTION_DDOT":0},{"OBJECT_NAME":"ONEWEB-0420","OBJECT_ID":"2021-132AC","EPOCH":"2025-10-29T12:10:48.923616","MEAN_MOTION":13.1868682,"ECCENTRICITY":0.0002009,"INCLINATION":87.9232,"RA_OF_ASC_NODE":21.2761,"ARG_OF_PERICENTER":110.3581,"MEAN_ANOMALY":249.7767,"EPHEMERIS_TYPE":0,"CLASSIFICATION_TYPE":"U","NORAD_CAT_ID":50495,"ELEMENT_SET_NO":999,"REV_AT_EPOCH":19117,"BSTAR":0.00011488,"MEAN_MOTION_DOT":5.8e-7,"MEAN_MOTION_DDOT":0},{"OBJECT_NAME":"ONEWEB-0421","OBJECT_ID":"2021-132AD","EPOCH":"2025-10-29T12:01:18.548832","MEAN_MOTION":13.1868555,"ECCENTRICITY":0.0001542,"INCLINATION":87.9228,"RA_OF_ASC_NODE":21.2711,"ARG_OF_PERICENTER":107.9616,"MEAN_ANOMALY":252.1684,"EPHEMERIS_TYPE":0,"CLASSIFICATION_TYPE":"U","NORAD_CAT_ID":50496,"ELEMENT_SET_NO":999,"REV_AT_EPOCH":19121,"BSTAR":0.00015815,"MEAN_MOTION_DOT":7.5e-7,"MEAN_MOTION_DDOT":0},{"OBJECT_NAME":"ONEWEB-0424","OBJECT_ID":"2021-132AE","EPOCH":"2025-10-29T11:04:18.365088","MEAN_MOTION":13.18686655,"ECCENTRICITY":0.0002135,"INCLINATION":87.9232,"RA_OF_ASC_NODE":21.2747,"ARG_OF_PERICENTER":92.9892,"MEAN_ANOMALY":267.1484,"EPHEMERIS_TYPE":0,"CLASSIFICATION_TYPE":"U","NORAD_CAT_ID":50497,"ELEMENT_SET_NO":999,"REV_AT_EPOCH":19123,"BSTAR":0.00032525,"MEAN_MOTION_DOT":1.41e-6,"MEAN_MOTION_DDOT":0},{"OBJECT_NAME":"ONEWEB-0426","OBJECT_ID":"2021-132AF","EPOCH":"2025-10-29T11:56:33.491904","MEAN_MOTION":13.18687171,"ECCENTRICITY":0.0001122,"INCLINATION":87.9225,"RA_OF_ASC_NODE":21.2581,"ARG_OF_PERICENTER":98.1065,"MEAN_ANOMALY":262.0195,"EPHEMERIS_TYPE":0,"CLASSIFICATION_TYPE":"U","NORAD_CAT_ID":50498,"ELEMENT_SET_NO":999,"REV_AT_EPOCH":19118,"BSTAR":2.2573e-5,"MEAN_MOTION_DOT":2.2e-7,"MEAN_MOTION_DDOT":0}]
